NORAD_CAT_ID,OBJECT_NAME,OBJECT_TYPE,EPOCH,MEAN_MOTION,ECCENTRICITY,INCLINATION,RA_OF_ASC_NODE,ARG_OF_PERICENTER,MEAN_ANOMALY,BSTAR,MEAN_MOTION_DOT,MEAN_MOTION_DDOT,TLE_LINE0,TLE_LINE1,TLE_LINE2,SEMIMAJOR_AXIS,PERIOD,APOGEE,PERIGEE,DECAYED
54802.0,STARLINK-5426,PAYLOAD,2023-11-07 05:32:07,15.08767157,0.0001355,53.2164,219.9052,97.7655,262.3491,0.0031297,0.00049773,0.0,0 STARLINK-5426,1 54802U 22175AW  23311.23064105  .00049773  00000-0  31297-2 0  9991,2 54802  53.2164 219.9052 0001355  97.7655 262.3491 15.08767157 49695,6918.103,95.442,540.905,539.031,0.0
54802.0,STARLINK-5426,PAYLOAD,2023-11-08 00:36:44,15.08883823,0.0001352,53.217,216.3365,107.9304,252.1835,0.0024615,0.00039152,0.0,0 STARLINK-5426,1 54802U 22175AW  23312.02551474  .00039152  00000-0  24615-2 0  9995,2 54802  53.2170 216.3365 0001352 107.9304 252.1835 15.08883823 49814,6917.746,95.435,540.547,538.676,0.0
54802.0,STARLINK-5426,PAYLOAD,2023-11-08 22:52:07,15.08882658,0.0001211,53.2166,212.1741,118.3371,241.7743,0.0019521,0.00030953,0.0,0 STARLINK-5426,1 54802U 22175AW  23312.95286411  .00030953  00000-0  19521-2 0  9993,2 54802  53.2166 212.1741 0001211 118.3371 241.7743 15.08882658 52119,6917.75,95.435,540.453,538.777,0.0
54802.0,STARLINK-5426,PAYLOAD,2023-11-09 00:27:30,15.08865785,0.0001197,53.2168,211.8762,97.9399,262.1729,0.0019582,0.00031036,0.0,0 STARLINK-5426,1 54802U 22175AW  23313.01910412  .00031036  00000-0  19582-2 0  9996,2 54802  53.2168 211.8762 0001197  97.9399 262.1729 15.08865785 49967,6917.802,95.436,540.495,538.839,0.0
54802.0,STARLINK-5426,PAYLOAD,2023-11-09 22:42:54,15.08854937,0.0001396,53.2176,207.7164,113.0196,247.0944,0.0011569,0.00018179,0.0,0 STARLINK-5426,1 54802U 22175AW  23313.94646431  .00018179  00000-0  11569-2 0  9995,2 54802  53.2176 207.7164 0001396 113.0196 247.0944 15.08854937 52267,6917.835,95.437,540.665,538.734,0.0
54802.0,STARLINK-5426,PAYLOAD,2023-11-10 01:53:40,15.08848686,0.0001289,53.217,207.1192,89.4379,270.6761,0.00070919,0.00011019,0.0,0 STARLINK-5426,1 54802U 22175AW  23314.07894489  .00011019  00000-0  70919-3 0  9999,2 54802  53.2170 207.1192 0001289  89.4379 270.6761 15.08848686 50122,6917.854,95.437,540.611,538.827,0.0
54802.0,STARLINK-5426,PAYLOAD,2023-11-11 00:09:05,15.08838856,0.0001425,53.2164,202.9587,88.6827,271.4329,0.00051301,7.886e-05,0.0,0 STARLINK-5426,1 54802U 22175AW  23315.00630937  .00007886  00000-0  51301-3 0  9990,2 54802  53.2164 202.9587 0001425  88.6827 271.4329 15.08838856 50269,6917.884,95.438,540.735,538.763,0.0
54802.0,STARLINK-5426,PAYLOAD,2023-11-11 16:02:56,15.08847183,0.0001452,53.2161,199.9848,81.8354,278.2802,0.00041949,6.396e-05,0.0,0 STARLINK-5426,1 54802U 22175AW  23315.66870816  .00006396  00000-0  41949-3 0  9996,2 54802  53.2161 199.9848 0001452  81.8354 278.2802 15.08847183 50366,6917.858,95.437,540.728,538.719,0.0
54802.0,STARLINK-5426,PAYLOAD,2023-11-11 22:24:28,15.08845176,0.0001418,53.2166,198.7931,86.2133,273.9022,0.00029744,4.45e-05,0.0,0 STARLINK-5426,1 54802U 22175AW  23315.93366786  .00004450  00000-0  29744-3 0  9990,2 54802  53.2166 198.7931 0001418  86.2133 273.9022 15.08845176 52567,6917.865,95.437,540.711,538.749,0.0
54802.0,STARLINK-5426,PAYLOAD,2023-11-12 01:35:15,15.08848294,0.0001539,53.2164,198.1983,79.4659,280.6506,0.00035452,5.36e-05,0.0,0 STARLINK-5426,1 54802U 22175AW  23316.06614733  .00005360  00000-0  35452-3 0  9997,2 54802  53.2164 198.1983 0001539  79.4659 280.6506 15.08848294 50426,6917.855,95.437,540.785,538.655,0.0
54802.0,STARLINK-5426,PAYLOAD,2023-11-12 09:32:10,15.08843071,0.0001493,53.2161,196.7115,88.6088,271.5075,0.00015281,2.145e-05,0.0,0 STARLINK-5426,1 54802U 22175AW  23316.39734766  .00002145  00000-0  15281-3 0  9998,2 54802  53.2161 196.7115 0001493  88.6088 271.5075 15.08843071 50474,6917.871,95.437,540.769,538.703,0.0
54802.0,STARLINK-5426,PAYLOAD,2023-11-12 22:15:15,15.0884685,0.0001398,53.2154,194.3318,92.8629,267.2523,0.00010478,1.38e-05,0.0,0 STARLINK-5426,1 54802U 22175AW  23316.92726527  .00001380  00000-0  10478-3 0  9996,2 54802  53.2154 194.3318 0001398  92.8629 267.2523 15.08846850 52714,6917.859,95.437,540.692,538.757,0.0
54802.0,STARLINK-5426,PAYLOAD,2023-11-13 09:22:57,15.08844774,0.0001351,53.2147,192.2495,94.8336,265.281,0.00016375,2.319e-05,0.0,0 STARLINK-5426,1 54802U 22175AW  23317.39094648  .00002319  00000-0  16375-3 0  9995,2 54802  53.2147 192.2495 0001351  94.8336 265.2810 15.08844774 50623,6917.866,95.437,540.665,538.796,0.0
54802.0,STARLINK-5426,PAYLOAD,2023-11-13 22:06:03,15.08841437,0.00015,53.216,189.871,90.2579,269.8585,8.1458e-05,1.009e-05,0.0,0 STARLINK-5426,1 54802U 22175AW  23317.92086809  .00001009  00000-0  81458-4 0  9994,2 54802  53.2160 189.8710 0001500  90.2579 269.8585 15.08841437 52865,6917.876,95.437,540.779,538.703,0.0
54802.0,STARLINK-5426,PAYLOAD,2023-11-14 01:16:49,15.08844748,0.0001533,53.2163,189.276,92.0862,268.0306,9.9956e-05,1.303e-05,0.0,0 STARLINK-5426,1 54802U 22175AW  23318.05334692  .00001303  00000-0  99956-4 0  9994,2 54802  53.2163 189.2760 0001533  92.0862 268.0306 15.08844748 50721,6917.866,95.437,540.791,538.67,0.0
54802.0,STARLINK-5426,PAYLOAD,2023-11-14 09:13:44,15.08842512,0.0001538,53.2169,187.7882,92.95,267.1668,8.826e-05,1.117e-05,0.0,0 STARLINK-5426,1 54802U 22175AW  23318.38454658  .00001117  00000-0  88260-4 0  9994,2 54802  53.2169 187.7882 0001538  92.9500 267.1668 15.08842512 50771,6917.873,95.437,540.802,538.674,0.0
54802.0,STARLINK-5426,PAYLOAD,2023-11-14 21:56:49,15.08843995,0.0001563,53.2176,185.4103,91.0511,269.0661,9.7116e-05,1.258e-05,0.0,0 STARLINK-5426,1 54802U 22175AW  23318.91446669  .00001258  00000-0  97116-4 0  9992,2 54802  53.2176 185.4103 0001563  91.0511 269.0661 15.08843995 53010,6917.868,95.437,540.814,538.652,0.0
54802.0,STARLINK-5426,PAYLOAD,2023-11-15 01:07:36,15.08828065,0.0001646,53.2175,184.8155,96.2576,263.8604,0.00056509,8.714e-05,0.0,0 STARLINK-5426,1 54802U 22175AW  23319.04695529  .00008714  00000-0  56509-3 0  9992,2 54802  53.2175 184.8155 0001646  96.2576 263.8604 15.08828065 50870,6917.917,95.438,540.921,538.643,0.0
54802.0,STARLINK-5426,PAYLOAD,2023-11-15 21:47:37,15.08838415,0.0001583,53.217,180.9491,92.5675,267.5498,5.4567e-05,5.8e-06,0.0,0 STARLINK-5426,1 54802U 22175AW  23319.90806986  .00000580  00000-0  54567-4 0  9994,2 54802  53.2170 180.9491 0001583  92.5675 267.5498 15.08838415 53161,6917.885,95.438,540.845,538.655,0.0
54802.0,STARLINK-5426,PAYLOAD,2023-11-16 00:58:23,15.0883646,0.0001568,53.2194,180.3546,92.5711,267.5461,5.516e-05,5.9e-06,0.0,0 STARLINK-5426,1 54802U 22175AW  23320.04055245  .00000590  00000-0  55160-4 0  9996,2 54802  53.2194 180.3546 0001568  92.5711 267.5461 15.08836460 51027,6917.891,95.438,540.841,538.671,0.0
54802.0,STARLINK-5426,PAYLOAD,2023-11-16 15:16:51,15.08837266,0.0001383,53.2161,177.6792,96.6029,263.512,6.3819e-05,7.28e-06,0.0,0 STARLINK-5426,1 54802U 22175AW  23320.63671176  .00000728  00000-0  63819-4 0  9991,2 54802  53.2161 177.6792 0001383  96.6029 263.5120 15.08837266 51118,6917.889,95.438,540.71,538.797,0.0
54802.0,STARLINK-5426,PAYLOAD,2023-11-16 21:38:23,15.08852769,0.0001194,53.2173,176.4893,83.5795,276.5334,-0.00013602,-2.453e-05,0.0,0 STARLINK-5426,1 54802U 22175AW  23320.90166471 -.00002453  00000-0 -13602-3 0  9991,2 54802  53.2173 176.4893 0001194  83.5795 276.5334 15.08852769 53315,6917.841,95.437,540.532,538.88,0.0
54802.0,STARLINK-5426,PAYLOAD,2023-11-17 07:10:43,15.08839081,0.0001344,53.2162,174.7056,88.4786,271.636,0.00011447,1.534e-05,0.0,0 STARLINK-5426,1 54802U 22175AW  23321.29911047  .00001534  00000-0  11447-3 0  9993,2 54802  53.2162 174.7056 0001344  88.4786 271.6360 15.08839081 51210,6917.883,95.438,540.678,538.818,0.0
54802.0,STARLINK-5426,PAYLOAD,2023-11-17 15:07:39,15.08830077,0.0001276,53.2152,173.2186,92.1213,267.9926,4.2798e-05,3.93e-06,0.0,0 STARLINK-5426,1 54802U 22175AW  23321.63031861  .00000393  00000-0  42798-4 0  9994,2 54802  53.2152 173.2186 0001276  92.1213 267.9926 15.08830077 53425,6917.911,95.438,540.658,538.893,0.0
54802.0,STARLINK-5426,PAYLOAD,2023-11-17 21:29:11,15.08839515,0.0001489,53.2184,172.031,96.9906,263.1255,1.9599e-05,2.4e-07,0.0,0 STARLINK-5426,1 54802U 22175AW  23321.89527459  .00000024  00000-0  19599-4 0  9999,2 54802  53.2184 172.0310 0001489  96.9906 263.1255 15.08839515 53466,6917.882,95.438,540.777,538.717,0.0
54802.0,STARLINK-5426,PAYLOAD,2023-11-18 00:39:58,15.0883399,0.0001566,53.2158,171.4363,100.642,259.4748,6.1133e-05,6.85e-06,0.0,0 STARLINK-5426,1 54802U 22175AW  23322.02775716  .00000685  00000-0  61133-4 0  9990,2 54802  53.2158 171.4363 0001566 100.6420 259.4748 15.08833990 51327,6917.899,95.438,540.847,538.68,0.0
54802.0,STARLINK-5426,PAYLOAD,2023-11-18 07:01:30,15.08840383,0.0001424,53.2194,170.2472,95.2172,264.8982,-4.2003e-07,-2.95e-06,0.0,0 STARLINK-5426,1 54802U 22175AW  23322.29271519 -.00000295  00000-0 -42003-6 0  9997,2 54802  53.2194 170.2472 0001424  95.2172 264.8982 15.08840383 51369,6917.879,95.438,540.729,538.759,0.0
54802.0,STARLINK-5426,PAYLOAD,2023-11-19 06:52:17,15.08843755,0.0001459,53.2184,165.786,87.8227,272.2932,0.00010709,1.417e-05,0.0,0 STARLINK-5426,1 54802U 22175AW  23323.28631148  .00001417  00000-0  10709-3 0  9995,2 54802  53.2184 165.7860 0001459  87.8227 272.2932 15.08843755 51515,6917.869,95.437,540.743,538.725,0.0
54802.0,STARLINK-5426,PAYLOAD,2023-11-19 19:35:22,15.08841313,0.0001369,53.2166,163.4066,88.5906,271.5243,9.5672e-05,1.235e-05,0.0,0 STARLINK-5426,1 54802U 22175AW  23323.81623312  .00001235  00000-0  95672-4 0  9999,2 54802  53.2166 163.4066 0001369  88.5906 271.5243 15.08841313 51593,6917.876,95.437,540.688,538.794,0.0
54802.0,STARLINK-5426,PAYLOAD,2023-11-19 21:10:45,15.08841626,0.0001424,53.2168,163.1095,88.0843,272.0313,9.2923e-05,1.191e-05,0.0,0 STARLINK-5426,1 54802U 22175AW  23323.88247251  .00001191  00000-0  92923-4 0  9997,2 54802  53.2168 163.1095 0001424  88.0843 272.0313 15.08841626 53763,6917.875,95.437,540.726,538.755,0.0
